start=new Date('2021-11-27T00:00:00.000Z').valueOf();
sats=[{"MEAN_MOTION":"15.06401507","DECAY_DATE":null,"OBJECT_ID":"2021-038AK","REV_AT_EPOCH":"3153","TLE_LINE2":"2 48386  53.0553 166.7260 0002048  78.4642 281.6577 15.06401507 31532","OBJECT_NAME":"STARLINK-2606","MEAN_ELEMENT_THEORY":"SGP4","RCS_SIZE":"LARGE","FILE":"3224952","LAUNCH_DATE":"2021-05-04","RA_OF_ASC_NODE":"166.7260","TLE_LINE1":"1 48386U 21038AK  21330.90372121  .00000577  00000-0  57619-4 0  9998","SITE":"AFETR","GP_ID":"190560796","MEAN_ANOMALY":"281.6577","CLASSIFICATION_TYPE":"U","EPOCH":"2021-11-26T21:41:21.512544","COUNTRY_CODE":"US","BSTAR":"0.00005761900000","MEAN_MOTION_DDOT":"0.0000000000000","ECCENTRICITY":"0.00020480","EPHEMERIS_TYPE":"0","SEMIMAJOR_AXIS":"6925.344","OBJECT_TYPE":"PAYLOAD","MEAN_MOTION_DOT":"0.00000577","CENTER_NAME":"EARTH","ARG_OF_PERICENTER":"78.4642","REF_FRAME":"TEME","ELEMENT_SET_NO":"999","APOAPSIS":"548.627","TIME_SYSTEM":"UTC","INCLINATION":"53.0553","NORAD_CAT_ID":"48386","PERIOD":"95.592","PERIAPSIS":"545.791"},{"ELEMENT_SET_NO":"999","APOAPSIS":"548.682","TIME_SYSTEM":"UTC","ARG_OF_PERICENTER":"75.9221","REF_FRAME":"TEME","INCLINATION":"53.0555","NORAD_CAT_ID":"48387","PERIAPSIS":"545.808","PERIOD":"95.593","ECCENTRICITY":"0.00020750","EPHEMERIS_TYPE":"0","SEMIMAJOR_AXIS":"6925.380","OBJECT_TYPE":"PAYLOAD","MEAN_MOTION_DOT":"0.00001019","CENTER_NAME":"EARTH","MEAN_ANOMALY":"284.1998","GP_ID":"190530966","EPOCH":"2021-11-26T06:33:44.534304","CLASSIFICATION_TYPE":"U","MEAN_MOTION_DDOT":"0.0000000000000","COUNTRY_CODE":"US","BSTAR":"0.00008733500000","DECAY_DATE":null,"REV_AT_EPOCH":"3144","OBJECT_ID":"2021-038AL","MEAN_MOTION":"15.06389752","TLE_LINE2":"2 48387  53.0555 169.5595 0002075  75.9221 284.1998 15.06389752 31444","OBJECT_NAME":"STARLINK-2600","FILE":"3224704","LAUNCH_DATE":"2021-05-04","RA_OF_ASC_NODE":"169.5595","MEAN_ELEMENT_THEORY":"SGP4","RCS_SIZE":"MEDIUM","SITE":"AFETR","TLE_LINE1":"1 48387U 21038AL  21330.27343211  .00001019  00000-0  87335-4 0  9997"},{"ELEMENT_SET_NO":"999","TIME_SYSTEM":"UTC","APOAPSIS":"548.440","ARG_OF_PERICENTER":"87.7756","REF_FRAME":"TEME","PERIAPSIS":"545.939","PERIOD":"95.592","INCLINATION":"53.0543","NORAD_CAT_ID":"48388","SEMIMAJOR_AXIS":"6925.324","ECCENTRICITY":"0.00018060","EPHEMERIS_TYPE":"0","CENTER_NAME":"EARTH","OBJECT_TYPE":"PAYLOAD","MEAN_MOTION_DOT":"0.00001026","GP_ID":"190530717","MEAN_ANOMALY":"272.3439","MEAN_MOTION_DDOT":"0.0000000000000","COUNTRY_CODE":"US","BSTAR":"0.00008776200000","EPOCH":"2021-11-26T12:46:37.757280","CLASSIFICATION_TYPE":"U","TLE_LINE2":"2 48388  53.0543 168.3821 0001806  87.7756 272.3439 15.06407864 31484","OBJECT_NAME":"STARLINK-2594","DECAY_DATE":null,"OBJECT_ID":"2021-038AM","REV_AT_EPOCH":"3148","MEAN_MOTION":"15.06407864","TLE_LINE1":"1 48388U 21038AM  21330.53238145  .00001026  00000-0  87762-4 0  9998","SITE":"AFETR","LAUNCH_DATE":"2021-05-04","FILE":"3224704","RA_OF_ASC_NODE":"168.3821","MEAN_ELEMENT_THEORY":"SGP4","RCS_SIZE":"MEDIUM"},{"COUNTRY_CODE":"US","BSTAR":"0.00005348300000","MEAN_MOTION_DDOT":"0.0000000000000","EPOCH":"2021-11-26T14:04:15.244320","CLASSIFICATION_TYPE":"U","GP_ID":"190535031","MEAN_ANOMALY":"274.9658","TLE_LINE1":"1 48389U 21038AN  21330.58628755  .00000515  00000-0  53483-4 0  9999","SITE":"AFETR","MEAN_ELEMENT_THEORY":"SGP4","RCS_SIZE":"LARGE","FILE":"3224833","LAUNCH_DATE":"2021-05-04","RA_OF_ASC_NODE":"163.1372","TLE_LINE2":"2 48389  53.0544 163.1372 0001932  85.1551 274.9658 15.06397256 32143","OBJECT_NAME":"STARLINK-1904","MEAN_MOTION":"15.06397256","DECAY_DATE":null,"OBJECT_ID":"2021-038AN","REV_AT_EPOCH":"3214","PERIOD":"95.592","PERIAPSIS":"545.884","INCLINATION":"53.0544","NORAD_CAT_ID":"48389","ARG_OF_PERICENTER":"85.1551","REF_FRAME":"TEME","ELEMENT_SET_NO":"999","APOAPSIS":"548.560","TIME_SYSTEM":"UTC","CENTER_NAME":"EARTH","OBJECT_TYPE":"PAYLOAD","MEAN_MOTION_DOT":"0.00000515","SEMIMAJOR_AXIS":"6925.357","ECCENTRICITY":"0.00019320","EPHEMERIS_TYPE":"0"},{"SEMIMAJOR_AXIS":"6925.367","ECCENTRICITY":"0.00018970","EPHEMERIS_TYPE":"0","CENTER_NAME":"EARTH","OBJECT_TYPE":"PAYLOAD","MEAN_MOTION_DOT":"-0.00001267","ARG_OF_PERICENTER":"81.3992","REF_FRAME":"TEME","ELEMENT_SET_NO":"999","TIME_SYSTEM":"UTC","APOAPSIS":"548.545","PERIOD":"95.593","PERIAPSIS":"545.918","INCLINATION":"53.0547","NORAD_CAT_ID":"48390","TLE_LINE2":"2 48390  53.0547 161.6759 0001897  81.3992 278.7212 15.06394105 32820","OBJECT_NAME":"STARLINK-2586","MEAN_MOTION":"15.06394105","DECAY_DATE":null,"REV_AT_EPOCH":"3282","OBJECT_ID":"2021-038AP","TLE_LINE1":"1 48390U 21038AP  21330.91434183 -.00001267  00000-0 -66200-4 0  9996","SITE":"AFETR","MEAN_ELEMENT_THEORY":"SGP4","RCS_SIZE":"LARGE","LAUNCH_DATE":"2021-05-04","FILE":"3224952","RA_OF_ASC_NODE":"161.6759","MEAN_ANOMALY":"278.7212","GP_ID":"190560523","COUNTRY_CODE":"US","BSTAR":"-0.00006620000000","MEAN_MOTION_DDOT":"0.0000000000000","CLASSIFICATION_TYPE":"U","EPOCH":"2021-11-26T21:56:39.134112"},{"BSTAR":"0.00008088100000","COUNTRY_CODE":"US","MEAN_MOTION_DDOT":"0.0000000000000","CLASSIFICATION_TYPE":"U","EPOCH":"2021-11-26T21:51:20.306016","GP_ID":"190558770","MEAN_ANOMALY":"270.4950","SITE":"AFETR","TLE_LINE1":"1 48391U 21038AQ  21330.91065169  .00000923  00000-0  80881-4 0  9998","RCS_SIZE":"LARGE","MEAN_ELEMENT_THEORY":"SGP4","RA_OF_ASC_NODE":"161.6907","FILE":"3224952","LAUNCH_DATE":"2021-05-04","OBJECT_NAME":"STARLINK-2607","TLE_LINE2":"2 48391  53.0543 161.6907 0001744  89.6239 270.4950 15.06395370 32821","MEAN_MOTION":"15.06395370","REV_AT_EPOCH":"3282","OBJECT_ID":"2021-038AQ","DECAY_DATE":null,"PERIOD":"95.592","PERIAPSIS":"546.020","NORAD_CAT_ID":"48391","INCLINATION":"53.0543","REF_FRAME":"TEME","ARG_OF_PERICENTER":"89.6239","TIME_SYSTEM":"UTC","APOAPSIS":"548.436","ELEMENT_SET_NO":"999","CENTER_NAME":"EARTH","MEAN_MOTION_DOT":"0.00000923","OBJECT_TYPE":"PAYLOAD","SEMIMAJOR_AXIS":"6925.363","EPHEMERIS_TYPE":"0","ECCENTRICITY":"0.00017440"},{"CENTER_NAME":"EARTH","MEAN_MOTION_DOT":"0.00001740","OBJECT_TYPE":"PAYLOAD","SEMIMAJOR_AXIS":"6925.351","EPHEMERIS_TYPE":"0","ECCENTRICITY":"0.00017630","PERIOD":"95.592","PERIAPSIS":"545.995","NORAD_CAT_ID":"48392","INCLINATION":"53.0549","APOAPSIS":"548.437","TIME_SYSTEM":"UTC","ELEMENT_SET_NO":"999","REF_FRAME":"TEME","ARG_OF_PERICENTER":"85.6446","SITE":"AFETR","TLE_LINE1":"1 48392U 21038AR  21330.90696236  .00001740  00000-0  13566-3 0  9996","RA_OF_ASC_NODE":"161.7050","LAUNCH_DATE":"2021-05-04","FILE":"3224952","RCS_SIZE":"LARGE","MEAN_ELEMENT_THEORY":"SGP4","OBJECT_NAME":"STARLINK-2605","TLE_LINE2":"2 48392  53.0549 161.7050 0001763  85.6446 274.4744 15.06399278 32821","OBJECT_ID":"2021-038AR","REV_AT_EPOCH":"3282","DECAY_DATE":null,"MEAN_MOTION":"15.06399278","MEAN_MOTION_DDOT":"0.0000000000000","BSTAR":"0.00013566000000","COUNTRY_CODE":"US","CLASSIFICATION_TYPE":"U","EPOCH":"2021-11-26T21:46:01.547904","MEAN_ANOMALY":"274.4744","GP_ID":"190559521"},{"TLE_LINE1":"1 48393U 21038AS  21330.90327861  .00000702  00000-0  66015-4 0  9997","SITE":"AFETR","RA_OF_ASC_NODE":"161.7269","FILE":"3224952","LAUNCH_DATE":"2021-05-04","RCS_SIZE":"LARGE","MEAN_ELEMENT_THEORY":"SGP4","OBJECT_NAME":"STARLINK-2602","TLE_LINE2":"2 48393  53.0553 161.7269 0001709  86.1761 273.9423 15.06395476 32829","OBJECT_ID":"2021-038AS","REV_AT_EPOCH":"3282","DECAY_DATE":null,"MEAN_MOTION":"15.06395476","MEAN_MOTION_DDOT":"0.0000000000000","BSTAR":"0.00006601500000","COUNTRY_CODE":"US","CLASSIFICATION_TYPE":"U","EPOCH":"2021-11-26T21:40:43.271904","MEAN_ANOMALY":"273.9423","GP_ID":"190560266","CENTER_NAME":"EARTH","MEAN_MOTION_DOT":"0.00000702","OBJECT_TYPE":"PAYLOAD","SEMIMAJOR_AXIS":"6925.362","EPHEMERIS_TYPE":"0","ECCENTRICITY":"0.00017090","PERIAPSIS":"546.044","PERIOD":"95.592","NORAD_CAT_ID":"48393","INCLINATION":"53.0553","APOAPSIS":"548.411","TIME_SYSTEM":"UTC","ELEMENT_SET_NO":"999","REF_FRAME":"TEME","ARG_OF_PERICENTER":"86.1761"},{"PERIAPSIS":"546.103","PERIOD":"95.592","NORAD_CAT_ID":"48394","INCLINATION":"53.0542","REF_FRAME":"TEME","ARG_OF_PERICENTER":"89.7182","TIME_SYSTEM":"UTC","APOAPSIS":"548.301","ELEMENT_SET_NO":"999","CENTER_NAME":"EARTH","MEAN_MOTION_DOT":"0.00000771","OBJECT_TYPE":"PAYLOAD","SEMIMAJOR_AXIS":"6925.337","EPHEMERIS_TYPE":"0","ECCENTRICITY":"0.00015870","BSTAR":"0.00007062800000","COUNTRY_CODE":"US","MEAN_MOTION_DDOT":"0.0000000000000","CLASSIFICATION_TYPE":"U","EPOCH":"2021-11-26T21:35:25.393344","GP_ID":"190560797","MEAN_ANOMALY":"270.3988","TLE_LINE1":"1 48394U 21038AT  21330.89959946  .00000771  00000-0  70628-4 0  9992","SITE":"AFETR","RCS_SIZE":"LARGE","MEAN_ELEMENT_THEORY":"SGP4","RA_OF_ASC_NODE":"161.7347","FILE":"3224952","LAUNCH_DATE":"2021-05-04","OBJECT_NAME":"STARLINK-2573","TLE_LINE2":"2 48394  53.0542 161.7347 0001587  89.7182 270.3988 15.06403642 32827","MEAN_MOTION":"15.06403642","OBJECT_ID":"2021-038AT","REV_AT_EPOCH":"3282","DECAY_DATE":null},{"SEMIMAJOR_AXIS":"6925.333","EPHEMERIS_TYPE":"0","ECCENTRICITY":"0.00018020","CENTER_NAME":"EARTH","MEAN_MOTION_DOT":"0.00000435","OBJECT_TYPE":"PAYLOAD","REF_FRAME":"TEME","ARG_OF_PERICENTER":"80.8771","TIME_SYSTEM":"UTC","APOAPSIS":"548.446","ELEMENT_SET_NO":"999","PERIAPSIS":"545.950","PERIOD":"95.592","NORAD_CAT_ID":"48395","INCLINATION":"53.0539","OBJECT_NAME":"STARLINK-2574","TLE_LINE2":"2 48395  53.0539 162.1024 0001802  80.8771 279.2422 15.06405033 32813","MEAN_MOTION":"15.06405033","REV_AT_EPOCH":"3281","OBJECT_ID":"2021-038AU","DECAY_DATE":null,"SITE":"AFETR","TLE_LINE1":"1 48395U 21038AU  21330.81755176  .00000435  00000-0  48121-4 0  9994","RCS_SIZE":"LARGE","MEAN_ELEMENT_THEORY":"SGP4","RA_OF_ASC_NODE":"162.1024","LAUNCH_DATE":"2021-05-04","FILE":"3224952","MEAN_ANOMALY":"279.2422","GP_ID":"190559270","BSTAR":"0.00004812100000","COUNTRY_CODE":"US","MEAN_MOTION_DDOT":"0.0000000000000","EPOCH":"2021-11-26T19:37:16.472064","CLASSIFICATION_TYPE":"U"}];
